CCSDS_OEM_VERS = 1.0
CREATION_DATE  = 2017-05-11T11:13:21
ORIGINATOR     = GMAT USER

META_START
OBJECT_NAME          = MOPSSat_alt_35785_km_RAAN_90_041
OBJECT_ID            = SatId
CENTER_NAME          = Earth
REF_FRAME            = EME2000
TIME_SYSTEM          = UTC
START_TIME           = 2017-01-01T00:00:00.000
USEABLE_START_TIME   = 2017-01-01T00:00:00.000
USEABLE_STOP_TIME    = 2017-01-02T00:00:00.000
STOP_TIME            = 2017-01-02T00:00:00.000
INTERPOLATION        = Lagrange
INTERPOLATION_DEGREE = 7 
META_STOP


                                                                                   

2017-01-01T21:32:30.000   2.475968671595555e+04   3.412858677478350e+04  -2.254120415713884e+00  -2.488586672683719e+00   1.805594885119487e+00   4.119921352333060e-05
2017-01-01T21:32:40.000   2.473479426754860e+04   3.414663364787543e+04  -2.253707755634196e+00  -2.489902712166733e+00   1.803779518363907e+00   4.133280187760572e-05
2017-01-01T21:32:50.000   2.470988866531318e+04   3.416466236254283e+04  -2.253293759648501e+00  -2.491217427480923e+00   1.801963192621578e+00   4.146639452981762e-05
2017-01-01T21:33:00.000   2.468496992260716e+04   3.418267290911922e+04  -2.252878427716115e+00  -2.492530817921629e+00   1.800145908866518e+00   4.159999139535832e-05
2017-01-01T21:33:10.000   2.466003805279738e+04   3.420066527794633e+04  -2.252461759797232e+00  -2.493842882784788e+00   1.798327668073408e+00   4.173359238959754e-05
2017-01-01T21:33:20.000   2.463509306917109e+04   3.421863945943909e+04  -2.252043755851478e+00  -2.495153621371673e+00   1.796508471211115e+00   4.186719742834972e-05
2017-01-01T21:33:30.000   2.461013498499473e+04   3.423659544404192e+04  -2.251624415838851e+00  -2.496463032985709e+00   1.794688319246993e+00   4.200080642756745e-05
2017-01-01T21:33:40.000   2.458516381351412e+04   3.425453322222897e+04  -2.251203739719729e+00  -2.497771116932492e+00   1.792867213146891e+00   4.213441930333669e-05
2017-01-01T21:33:50.000   2.456017956789436e+04   3.427245278454614e+04  -2.250781727453822e+00  -2.499077872522842e+00   1.791045153870769e+00   4.226803597221199e-05
2017-01-01T21:34:00.000   2.453518226130951e+04   3.429035412154750e+04  -2.250358379001706e+00  -2.500383299068181e+00   1.789222142379242e+00   4.240165635072183e-05
2017-01-01T21:34:10.000   2.451017190695174e+04   3.430823722378893e+04  -2.249933694324997e+00  -2.501687395880062e+00   1.787398179634242e+00   4.253528035532670e-05
2017-01-01T21:34:20.000   2.448514851805535e+04   3.432610208180921e+04  -2.249507673386682e+00  -2.502990162268788e+00   1.785573266600778e+00   4.266890790226796e-05
2017-01-01T21:34:30.000   2.446011210791778e+04   3.434394868611712e+04  -2.249080316151562e+00  -2.504291597542476e+00   1.783747404248461e+00   4.280253890747916e-05
2017-01-01T21:34:40.000   2.443506268982562e+04   3.436177702724336e+04  -2.248651622584960e+00  -2.505591701010841e+00   1.781920593546104e+00   4.293617328697245e-05
2017-01-01T21:34:50.000   2.441000027738584e+04   3.437958709550744e+04  -2.248221592658491e+00  -2.506890471968195e+00   1.780092835485894e+00   4.306981095509584e-05
2017-01-01T21:35:00.000   2.438492488412463e+04   3.439737888130056e+04  -2.247790226343096e+00  -2.508187909714082e+00   1.778264131054120e+00   4.320345182664905e-05
2017-01-01T21:35:10.000   2.435983652363643e+04   3.441515237498028e+04  -2.247357523611618e+00  -2.509484013545587e+00   1.776434481242052e+00   4.333709581609664e-05
2017-01-01T21:35:20.000   2.433473520900698e+04   3.443290756727946e+04  -2.246923484428865e+00  -2.510778782787167e+00   1.774603887003855e+00   4.347074284062388e-05
2017-01-01T21:35:30.000   2.430962095338867e+04   3.445064444889822e+04  -2.246488108761505e+00  -2.512072216760888e+00   1.772772349298561e+00   4.360439281708900e-05
2017-01-01T21:35:40.000   2.428449376987042e+04   3.446836301059664e+04  -2.246051396575860e+00  -2.513364314793190e+00   1.770939869080567e+00   4.373804566271100e-05
2017-01-01T21:35:50.000   2.425935367180132e+04   3.448606324296287e+04  -2.245613347843364e+00  -2.514655076197976e+00   1.769106447323246e+00   4.387170129335799e-05
2017-01-01T21:36:00.000   2.423420067255079e+04   3.450374513658598e+04  -2.245173962536561e+00  -2.515944500289216e+00   1.767272085001454e+00   4.400535962481320e-05
2017-01-01T21:36:10.000   2.420903478550795e+04   3.452140868205510e+04  -2.244733240629031e+00  -2.517232586380878e+00   1.765436783091480e+00   4.413902057278201e-05
2017-01-01T21:36:20.000   2.418385602432523e+04   3.453905386979189e+04  -2.244291182099801e+00  -2.518519333774728e+00   1.763600542588818e+00   4.427268405158768e-05
2017-01-01T21:36:30.000   2.415866440259083e+04   3.455668069027705e+04  -2.243847786927470e+00  -2.519804741776827e+00   1.761763364484277e+00   4.440634997592160e-05
2017-01-01T21:36:40.000   2.413345993395755e+04   3.457428913396083e+04  -2.243403055092510e+00  -2.521088809691018e+00   1.759925249773375e+00   4.454001826015450e-05
2017-01-01T21:36:50.000   2.410824263157408e+04   3.459187919166048e+04  -2.242956986567223e+00  -2.522371536847910e+00   1.758086199414867e+00   4.467368882137170e-05
2017-01-01T21:37:00.000   2.408301250865354e+04   3.460945085416258e+04  -2.242509581325768e+00  -2.523652922575872e+00   1.756246214372205e+00   4.480736157633795e-05
2017-01-01T21:37:10.000   2.405776957834519e+04   3.462700411231334e+04  -2.242060839341919e+00  -2.524932966207621e+00   1.754405295604184e+00   4.494103644218629e-05
2017-01-01T21:37:20.000   2.403251385405957e+04   3.464453895678867e+04  -2.241610760594688e+00  -2.526211667063456e+00   1.752563444088654e+00   4.507471333466875e-05
2017-01-01T21:37:30.000   2.400724534922756e+04   3.466205537826562e+04  -2.241159345064202e+00  -2.527489024463761e+00   1.750720660804947e+00   4.520839216945977e-05
2017-01-01T21:37:40.000   2.398196407729973e+04   3.467955336742137e+04  -2.240706592731634e+00  -2.528765037728923e+00   1.748876946733829e+00   4.534207286214977e-05
2017-01-01T21:37:50.000   2.395667005199106e+04   3.469703291476740e+04  -2.240252503583724e+00  -2.530039706167251e+00   1.747032302875353e+00   4.547575532697713e-05
2017-01-01T21:38:00.000   2.393136328695191e+04   3.471449401087379e+04  -2.239797077606757e+00  -2.531313029091324e+00   1.745186730224852e+00   4.560943947854246e-05
2017-01-01T21:38:10.000   2.390604379589995e+04   3.473193664627889e+04  -2.239340314788956e+00  -2.532585005811407e+00   1.743340229782571e+00   4.574312523111934e-05
2017-01-01T21:38:20.000   2.388071159203908e+04   3.474936081188962e+04  -2.238882215110006e+00  -2.533855635664644e+00   1.741492802511289e+00   4.587681250170671e-05
2017-01-01T21:38:30.000   2.385536668864186e+04   3.476676649857996e+04  -2.238422778551551e+00  -2.535124917985773e+00   1.739644449378788e+00   4.601050120696841e-05
2017-01-01T21:38:40.000   2.383000909889926e+04   3.478415369729487e+04  -2.237962005094487e+00  -2.536392852114711e+00   1.737795171346899e+00   4.614419126402291e-05
2017-01-01T21:38:50.000   2.380463883632407e+04   3.480152239877040e+04  -2.237499894726183e+00  -2.537659437376144e+00   1.735944969400925e+00   4.627788258831807e-05
2017-01-01T21:39:00.000   2.377925591441826e+04   3.481887259376513e+04  -2.237036447434551e+00  -2.538924673096389e+00   1.734093844525376e+00   4.641157509538450e-05
2017-01-01T21:39:10.000   2.375386034674960e+04   3.483620427300656e+04  -2.236571663209403e+00  -2.540188558599506e+00   1.732241797709561e+00   4.654526870043083e-05
2017-01-01T21:39:20.000   2.372845214692264e+04   3.485351742721298e+04  -2.236105542042010e+00  -2.541451093208880e+00   1.730388829945475e+00   4.667896331850156e-05
2017-01-01T21:39:30.000   2.370303132856383e+04   3.487081204710211e+04  -2.235638083924762e+00  -2.542712276247855e+00   1.728534942226703e+00   4.681265886454995e-05
2017-01-01T21:39:40.000   2.367759790529106e+04   3.488808812341185e+04  -2.235169288850607e+00  -2.543972107041242e+00   1.726680135546211e+00   4.694635525360020e-05
2017-01-01T21:39:50.000   2.365215189070019e+04   3.490534564691094e+04  -2.234699156812869e+00  -2.545230584916107e+00   1.724824410895353e+00   4.708005240081163e-05
2017-01-01T21:40:00.000   2.362669329833413e+04   3.492258460841804e+04  -2.234227687804604e+00  -2.546487709203155e+00   1.722967769261624e+00   4.721375022164791e-05
2017-01-01T21:40:10.000   2.360122214176061e+04   3.493980499874994e+04  -2.233754881820063e+00  -2.547743479232949e+00   1.721110211634329e+00   4.734744863146618e-05
2017-01-01T21:40:20.000   2.357573843423529e+04   3.495700680894653e+04  -2.233280738848337e+00  -2.548997894352325e+00   1.719251738980011e+00   4.748114754729566e-05
2017-01-01T21:40:30.000   2.355024218910966e+04   3.497419002999776e+04  -2.232805258881035e+00  -2.550250953904477e+00   1.717392352272205e+00   4.761484688568560e-05
2017-01-01T21:40:40.000   2.352473341967702e+04   3.499135465294700e+04  -2.232328441909395e+00  -2.551502657236493e+00   1.715532052480197e+00   4.774854656351865e-05
2017-01-01T21:40:50.000   2.349921213976879e+04   3.500850066848966e+04  -2.231850287935423e+00  -2.552753003670086e+00   1.713670840612521e+00   4.788224649486595e-05
2017-01-01T21:41:00.000   2.347367836315824e+04   3.502562806737472e+04  -2.231370796960764e+00  -2.554001992530877e+00   1.711808717673468e+00   4.801594659413219e-05
2017-01-01T21:41:10.000   2.344813210371433e+04   3.504273684030098e+04  -2.230889968989566e+00  -2.555249623140822e+00   1.709945684674306e+00   4.814964677524186e-05
2017-01-01T21:41:20.000   2.342257337499515e+04   3.505982697819224e+04  -2.230407804020949e+00  -2.556495894838296e+00   1.708081742603632e+00   4.828334695379305e-05
2017-01-01T21:41:30.000   2.339700219058314e+04   3.507689847196995e+04  -2.229924302055192e+00  -2.557740806961487e+00   1.706216892451817e+00   4.841704704527703e-05
